[{"name":"IONOSFERA-M 4","l1":"1 64877U 25155B   26183.76614606  .00000059  00000+0  46417-4 0  9995","l2":"2 64877  98.6038 145.1967 0001557 111.3822 248.7522 14.21491454 48611","cat":"other"},{"name":"MICROCARB","l1":"1 64899U 25156A   26183.16721104  .00000648  00000+0  10882-3 0  9996","l2":"2 64899  98.0094 260.0568 0017037 208.4094 151.6186 14.72881876 50173","cat":"other"},{"name":"CO3D 3","l1":"1 64900U 25156B   26183.72181306  .00004946  00000+0  23152-3 0  9994","l2":"2 64900  97.4332 262.1915 0001839 108.8884 251.2551 15.20193198 51896","cat":"other"},{"name":"CO3D 4","l1":"1 64901U 25156C   26183.59031337  .00002428  00000+0  11522-3 0  9999","l2":"2 64901  97.4333 262.0617 0000932 177.2237 182.9003 15.20216320 51874","cat":"other"},{"name":"CO3D 2","l1":"1 64902U 25156D   26183.68861669  .00005138  00000+0  24038-3 0  9996","l2":"2 64902  97.4332 262.0576 0001443  91.1881 268.9519 15.20194325 51883","cat":"other"},{"name":"CO3D 1","l1":"1 64903U 25156E   26183.68877459  .00005078  00000+0  23757-3 0  9991","l2":"2 64903  97.4332 262.0578 0001327 102.1877 257.9507 15.20197818 51880","cat":"other"},{"name":"PRSC-S1","l1":"1 65055U 25164A   26183.77689372  .00003488  00000+0  24331-3 0  9996","l2":"2 65055  41.1287 200.0030 0005037 105.2165 254.9206 15.06565434 50783","cat":"other"},{"name":"SENTINEL-6B","l1":"1 66514U 25264A   26183.85717080 -.00000046  00000+0  64349-4 0  9997","l2":"2 66514  66.0412 102.6328 0007916 268.8819  91.1289 12.80929974 29170","cat":"science"},{"name":"CAS500-3","l1":"1 66655U 25274F   26183.74547112  .00001545  00000+0  17261-3 0  9993","l2":"2 66655  97.7442 111.4426 0006878  70.4146 289.7813 14.88359938 32464","cat":"other"},{"name":"CSG-3","l1":"1 67304U 26001A   26183.45638167  .00000373  00000+0  53465-4 0  9998","l2":"2 67304  97.8889   6.8372 0001511  96.0310 264.1075 14.82164507 26724","cat":"other"},{"name":"PRSC-E03","l1":"1 68835U 26092A   26183.49748270  .00003735  00000+0  25340-3 0  9994","l2":"2 68835  38.0021 359.3945 0003354 163.3202 196.7670 15.06753757 10267","cat":"other"},{"name":"CAS500-2","l1":"1 69013U 26100AK  26183.68151564  .00007266  00000+0  33252-3 0  9992","l2":"2 69013  97.3885  81.2487 0008943 342.7001  17.3929 15.20774819  9163","cat":"other"}]