OBJECT_NAME,OBJECT_ID,EPOCH,MEAN_MOTION,ECCENTRICITY,INCLINATION,RA_OF_ASC_NODE,ARG_OF_PERICENTER,MEAN_ANOMALY,EPHEMERIS_TYPE,CLASSIFICATION_TYPE,NORAD_CAT_ID,ELEMENT_SET_NO,REV_AT_EPOCH,BSTAR,MEAN_MOTION_DOT,MEAN_MOTION_DDOT
IONOSFERA-M 4,2025-155B,2026-07-02T18:23:15.019584,14.21491454,.0001557,98.6038,145.1967,111.3822,248.7522,0,U,64877,999,4861,.46417E-4,.59E-6,0
MICROCARB,2025-156A,2026-07-02T04:00:47.033856,14.72881876,.0017037,98.0094,260.0568,208.4094,151.6186,0,U,64899,999,5017,.10882E-3,.648E-5,0
CO3D 3,2025-156B,2026-07-02T17:19:24.648384,15.20193198,.0001839,97.4332,262.1915,108.8884,251.2551,0,U,64900,999,5189,.23152E-3,.4946E-4,0
CO3D 4,2025-156C,2026-07-02T14:10:03.075168,15.20216320,.0000932,97.4333,262.0617,177.2237,182.9003,0,U,64901,999,5187,.11522E-3,.2428E-4,0
CO3D 2,2025-156D,2026-07-02T16:31:36.482016,15.20194325,.0001443,97.4332,262.0576,91.1881,268.9519,0,U,64902,999,5188,.24038E-3,.5138E-4,0
CO3D 1,2025-156E,2026-07-02T16:31:50.124576,15.20197818,.0001327,97.4332,262.0578,102.1877,257.9507,0,U,64903,999,5188,.23757E-3,.5078E-4,0
PRSC-S1,2025-164A,2026-07-02T18:38:43.617408,15.06565434,.0005037,41.1287,200.0030,105.2165,254.9206,0,U,65055,999,5078,.24331E-3,.3488E-4,0
SENTINEL-6B,2025-264A,2026-07-02T20:34:19.557120,12.80929974,.0007916,66.0412,102.6328,268.8819,91.1289,0,U,66514,999,2917,.64349E-4,-.46E-6,0
CAS500-3,2025-274F,2026-07-02T17:53:28.704768,14.88359938,.0006878,97.7442,111.4426,70.4146,289.7813,0,U,66655,999,3246,.17261E-3,.1545E-4,0
CSG-3,2026-001A,2026-07-02T10:57:11.376288,14.82164507,.0001511,97.8889,6.8372,96.0310,264.1075,0,U,67304,999,2672,.53465E-4,.373E-5,0
PRSC-E03,2026-092A,2026-07-02T11:56:22.505280,15.06753757,.0003354,38.0021,359.3945,163.3202,196.7670,0,U,68835,999,1026,.2534E-3,.3735E-4,0
CAS500-2,2026-100AK,2026-07-02T16:21:22.951296,15.20774819,.0008943,97.3885,81.2487,342.7001,17.3929,0,U,69013,999,916,.33252E-3,.7266E-4,0
